      2.10          N: GNSS NAV DATA                        RINEX VERSION / TYPE
fic2rin                                 06/19/2020 00:17:36 PGM / RUN BY / DATE
                                                            END OF HEADER
 4 20  6 18  4  0  0.0-1.038592308760e-04-4.774847184308e-12 0.000000000000e+00
    2.000000000000e+01-2.143750000000e+01 4.989493546719e-09 1.526009584264e+00
   -1.024454832077e-06 7.774948608130e-04 6.824731826782e-06 5.153664453506e+03
    3.600000000000e+05 3.166496753693e-08-1.466085707989e+00 1.005828380585e-07
    9.595284143813e-01 2.491875000000e+02-2.614480443719e+00-8.162482857317e-09
   -3.585863651329e-10 1.000000000000e+00 2.110000000000e+03 0.000000000000e+00
    2.400000000000e+00 0.000000000000e+00-4.190951585770e-09 2.760000000000e+02
    3.528600000000e+05 4.000000000000e+00
27 20  6 18  3 59 44.0-3.234115429223e-04-9.890754881781e-12 0.000000000000e+00
    1.000000000000e+00-7.134375000000e+01 4.095884895761e-09 2.500659900488e+00
   -3.743916749954e-06 8.304323768243e-03 3.503635525703e-06 5.153666442871e+03
    3.599840000000e+05-9.499490261078e-08 1.642122113434e+00-1.080334186554e-07
    9.777592453572e-01 3.216250000000e+02 5.729730780571e-01-8.029977337931e-09
   -1.671498196038e-10 1.000000000000e+00 2.110000000000e+03 0.000000000000e+00
    2.400000000000e+00 0.000000000000e+00 1.862645149231e-09 1.000000000000e+00
    3.543900000000e+05 4.000000000000e+00
24 20  6 18  3 59 44.0-1.446902751923e-05-4.547473508865e-13 0.000000000000e+00
    9.000000000000e+00 3.940625000000e+01 4.992707966327e-09 6.166056952565e-01
    2.289190888405e-06 9.702519862913e-03 1.057051122189e-05 5.153655099869e+03
    3.599840000000e+05-5.587935447693e-08-5.125729868366e-01 1.396983861923e-07
    9.365184845883e-01 1.606875000000e+02 6.677098066679e-01-8.257129656879e-09
   -4.639478967207e-10 1.000000000000e+00 2.110000000000e+03 0.000000000000e+00
    2.400000000000e+00 0.000000000000e+00 2.793967723846e-09 9.000000000000e+00
    3.549300000000e+05 4.000000000000e+00
 3 20  6 18  3 59 44.0-2.124011516571e-04-1.216449163621e-11 0.000000000000e+00
    8.000000000000e+00 1.425000000000e+01 4.775198906202e-09-6.271082577132e-01
    8.791685104370e-07 2.920949016698e-03 6.955116987228e-06 5.153528537750e+03
    3.599840000000e+05 3.725290298462e-08-2.545333421937e+00 3.911554813385e-08
    9.659827050799e-01 2.514375000000e+02 7.223744368577e-01-8.065693111350e-09
    5.157357681791e-10 1.000000000000e+00 2.110000000000e+03 0.000000000000e+00
    2.400000000000e+00 0.000000000000e+00 1.862645149231e-09 8.000000000000e+00
    3.561000000000e+05 4.000000000000e+00
 3 20  6 18  5 59 44.0-2.124886959791e-04-1.216449163621e-11 0.000000000000e+00
    9.000000000000e+00 1.950000000000e+01 4.675551898361e-09 4.231439034935e-01
    8.493661880493e-07 2.921666018665e-03 7.022172212601e-06 5.153529890060e+03
    3.671840000000e+05 1.117587089539e-08-2.545391448582e+00 4.656612873077e-08
    9.659864121143e-01 2.512500000000e+02 7.223931797641e-01-8.059621429869e-09
    5.053781938875e-10 1.000000000000e+00 2.110000000000e+03 0.000000000000e+00
    2.400000000000e+00 0.000000000000e+00 1.862645149231e-09 9.000000000000e+00
    3.600000000000e+05 4.000000000000e+00
27 20  6 18  5 59 44.0-3.234823234379e-04-9.890754881781e-12 0.000000000000e+00
    2.000000000000e+00-6.750000000000e+01 4.068026592493e-09-2.732386763539e+00
   -3.457069396973e-06 8.303306531161e-03 3.090128302574e-06 5.153668403625e+03
    3.671840000000e+05-2.235174179077e-08 1.642064537368e+00-9.313225746155e-08
    9.777581905933e-01 3.290625000000e+02 5.730156416586e-01-7.994975879979e-09
   -1.639353999960e-10 1.000000000000e+00 2.110000000000e+03 0.000000000000e+00
    2.400000000000e+00 0.000000000000e+00 1.862645149231e-09 2.000000000000e+00
    3.600000000000e+05 4.000000000000e+00
24 20  6 18  5 59 44.0-1.447275280952e-05-4.547473508865e-13 0.000000000000e+00
    1.000000000000e+01 4.184375000000e+01 4.962706716655e-09 1.666682331163e+00
    2.263113856316e-06 9.703671908937e-03 1.144036650658e-05 5.153657966614e+03
    3.671840000000e+05-2.365559339523e-07-5.126328099456e-01 1.247972249985e-07
    9.365154227007e-01 1.470000000000e+02 6.678274442994e-01-8.188198214179e-09
   -3.775157250453e-10 1.000000000000e+00 2.110000000000e+03 0.000000000000e+00
    2.400000000000e+00 0.000000000000e+00 2.793967723846e-09 1.000000000000e+01
    3.600000000000e+05 4.000000000000e+00
 1 20  6 18  6  0  0.0 1.131882891059e-05 8.753886504564e-12 0.000000000000e+00
    2.400000000000e+01-6.368750000000e+01 3.758013679211e-09 1.440097525682e+00
   -3.367662429810e-06 9.986858000048e-03 1.058168709278e-05 5.153714315414e+03
    3.672000000000e+05-1.545995473862e-07 2.697960690652e+00 4.097819328308e-08
    9.807337162273e-01 1.867187500000e+02 7.901878712966e-01-7.719607266914e-09
    1.107188976008e-10 1.000000000000e+00 2.110000000000e+03 0.000000000000e+00
    2.400000000000e+00 0.000000000000e+00 5.122274160385e-09 2.400000000000e+01
    3.600000000000e+05 4.000000000000e+00
 2 20  6 18  6  0  0.0-4.738890565932e-04-5.911715561524e-12 0.000000000000e+00
    1.060000000000e+02-9.181250000000e+01 4.092670476153e-09 1.680674010293e+00
   -4.865229129791e-06 1.969876640942e-02 1.036189496517e-05 5.153725347519e+03
    3.672000000000e+05 7.264316082001e-08 2.621241768738e+00-5.159527063370e-07
    9.596610162019e-01 1.772187500000e+02-1.623589837948e+00-7.779609766259e-09
    2.250093725435e-10 1.000000000000e+00 2.110000000000e+03 0.000000000000e+00
    2.400000000000e+00 0.000000000000e+00-1.769512891769e-08 1.060000000000e+02
    3.600000000000e+05 4.000000000000e+00
 6 20  6 18  6  0  0.0-2.904110588133e-04-5.911715561524e-12 0.000000000000e+00
    3.000000000000e+00-7.471875000000e+01 3.655509409497e-09 1.608235510607e+00
   -3.738328814507e-06 1.848490792327e-03 1.086853444576e-05 5.153564203262e+03
    3.672000000000e+05 4.470348358154e-08 2.689718178633e+00-5.587935447693e-09
    9.802850728995e-01 1.784687500000e+02-1.049664097397e+00-7.569243860818e-09
    2.550106222160e-10 1.000000000000e+00 2.110000000000e+03 0.000000000000e+00
    2.400000000000e+00 0.000000000000e+00 4.190951585770e-09 3.000000000000e+00
    3.600000000000e+05 4.000000000000e+00
 5 20  6 18  6  0  0.0-1.487322151661e-05-7.958078640513e-13 0.000000000000e+00
    6.300000000000e+01 1.356250000000e+01 4.881274753258e-09-1.914107351191e+00
    4.898756742477e-07 5.941290291958e-03 6.901100277901e-06 5.153675083160e+03
    3.672000000000e+05 7.823109626770e-08-2.577573390506e+00-5.774199962616e-08
    9.529161768065e-01 2.361250000000e+02 8.039899225960e-01-8.057835641198e-09
    6.318120317929e-10 1.000000000000e+00 2.110000000000e+03 0.000000000000e+00
    2.400000000000e+00 0.000000000000e+00-1.117587089539e-08 6.300000000000e+01
    3.600000000000e+05 4.000000000000e+00
22 20  6 18  6  0  0.0-7.773591205478e-04 2.046363078989e-12 0.000000000000e+00
    0.000000000000e+00 2.609375000000e+01 5.349865700523e-09 2.670219610645e+00
    1.102685928345e-06 7.029890199192e-03 7.150694727898e-06 5.153804872513e+03
    3.672000000000e+05 1.508742570877e-07-2.632594776677e+00 5.774199962616e-08
    9.310865922253e-01 2.245625000000e+02-1.132168434605e+00-8.298917111780e-09
    5.143071372424e-10 1.000000000000e+00 2.110000000000e+03 0.000000000000e+00
    2.400000000000e+00 0.000000000000e+00-1.816079020500e-08 0.000000000000e+00
    3.600000000000e+05 4.000000000000e+00
11 20  6 18  6  0  0.0-2.455813810229e-04 1.068656274583e-11 0.000000000000e+00
    1.500000000000e+01-1.053437500000e+02 5.426654613375e-09 9.192892404754e-01
   -5.735084414482e-06 1.601060805842e-02 6.936490535736e-06 5.153720376968e+03
    3.672000000000e+05 2.235174179077e-08 2.222035716661e+00-3.576278686523e-07
    9.129084058194e-01 2.223437500000e+02 1.994068042515e+00-8.754293222880e-09
   -9.000374901741e-11 1.000000000000e+00 2.110000000000e+03 0.000000000000e+00
    2.400000000000e+00 0.000000000000e+00-1.257285475731e-08 1.500000000000e+01
    3.600000000000e+05 4.000000000000e+00
 7 20  6 18  6  0  0.0-3.070863895118e-04-8.753886504564e-12 0.000000000000e+00
    7.200000000000e+01 6.028125000000e+01 4.659122642588e-09 6.882635087092e-01
    3.423541784286e-06 1.399277651217e-02 1.039169728756e-05 5.153665430069e+03
    3.672000000000e+05-9.499490261078e-08-4.401570599769e-01 1.415610313416e-07
    9.532929601354e-01 1.765625000000e+02-2.389443265126e+00-8.144982128342e-09
   -4.321608583773e-10 1.000000000000e+00 2.110000000000e+03 0.000000000000e+00
    2.400000000000e+00 0.000000000000e+00-1.117587089539e-08 7.200000000000e+01
    3.600000000000e+05 4.000000000000e+00
 9 20  6 18  6  0  0.0-2.383235841990e-04-6.821210263297e-12 0.000000000000e+00
    4.600000000000e+01-2.225000000000e+01 5.153786104449e-09-2.356783784316e+00
   -1.089647412300e-06 1.515183947049e-03 6.482005119324e-06 5.153705167770e+03
    3.672000000000e+05-5.587935447693e-09-1.514250600467e+00 5.215406417847e-08
    9.522506865948e-01 2.516250000000e+02 1.804029454188e+00-8.187841056445e-09
   -2.607251459631e-10 1.000000000000e+00 2.110000000000e+03 0.000000000000e+00
    2.400000000000e+00 0.000000000000e+00 1.396983861923e-09 4.600000000000e+01
    3.600000000000e+05 4.000000000000e+00
 8 20  6 18  6  0  0.0-3.794254735112e-05-1.364242052659e-12 0.000000000000e+00
    2.900000000000e+01-6.534375000000e+01 4.311965324949e-09-2.573380771158e+00
   -3.365799784660e-06 5.343769560568e-03 2.982094883919e-06 5.153682575226e+03
    3.672000000000e+05-8.009374141693e-08 1.627593228842e+00-9.313225746155e-09
    9.693255255561e-01 3.278437500000e+02-6.475993380833e-02-8.178197797622e-09
   -1.917937032633e-10 1.000000000000e+00 2.110000000000e+03 0.000000000000e+00
    2.400000000000e+00 0.000000000000e+00 5.122274160385e-09 2.900000000000e+01
    3.600000000000e+05 4.000000000000e+00
